{
    "links": {
        "self": "http://www.neowsapp.com/rest/v1/neo/3611408?api_key=iIulBulltgU6a56xZRHN4H3l9WmuAYTsLGpBGhQ2"
    },
    "id": "3611408",
    "neo_reference_id": "3611408",
    "name": "(2012 UE)",
    "designation": "2012 UE",
    "nasa_jpl_url": "http://ssd.jpl.nasa.gov/sbdb.cgi?sstr=3611408",
    "absolute_magnitude_h": 28.4,
    "estimated_diameter": {
        "kilometers": {
            "estimated_diameter_min": 0.0055533491,
            "estimated_diameter_max": 0.0124176661
        },
        "meters": {
            "estimated_diameter_min": 5.5533491158,
            "estimated_diameter_max": 12.4176661257
        },
        "miles": {
            "estimated_diameter_min": 0.0034506901,
            "estimated_diameter_max": 0.0077159776
        },
        "feet": {
            "estimated_diameter_min": 18.2196499131,
            "estimated_diameter_max": 40.740375732
        }
    },
    "is_potentially_hazardous_asteroid": false,
    "close_approach_data": [
        {
            "close_approach_date": "2012-10-19",
            "close_approach_date_full": "2012-Oct-19 08:09",
            "epoch_date_close_approach": 1350634140000,
            "relative_velocity": {
                "kilometers_per_second": "13.5095265899",
                "kilometers_per_hour": "48634.2957235021",
                "miles_per_hour": "30219.4600288616"
            },
            "miss_distance": {
                "astronomical": "0.00520044",
                "lunar": "2.02297116",
                "kilometers": "777974.7470628",
                "miles": "483411.09175464"
            },
            "orbiting_body": "Earth"
        },
        {
            "close_approach_date": "2012-10-19",
            "close_approach_date_full": "2012-Oct-19 10:04",
            "epoch_date_close_approach": 1350641040000,
            "relative_velocity": {
                "kilometers_per_second": "14.5047742683",
                "kilometers_per_hour": "52217.1873657464",
                "miles_per_hour": "32445.7295606773"
            },
            "miss_distance": {
                "astronomical": "0.0074912838",
                "lunar": "2.9141093982",
                "kilometers": "1120680.100045506",
                "miles": "696358.3236037428"
            },
            "orbiting_body": "Moon"
        },
        {
            "close_approach_date": "2069-10-07",
            "close_approach_date_full": "2069-Oct-07 19:20",
            "epoch_date_close_approach": 3148399200000,
            "relative_velocity": {
                "kilometers_per_second": "18.5716874272",
                "kilometers_per_hour": "66858.0747378898",
                "miles_per_hour": "41543.0076058849"
            },
            "miss_distance": {
                "astronomical": "0.1746250665",
                "lunar": "67.9291508685",
                "kilometers": "26123537.997008355",
                "miles": "16232413.804311099"
            },
            "orbiting_body": "Earth"
        }
    ],
    "orbital_data": {
        "orbit_id": "5",
        "orbit_determination_date": "2019-07-16 06:14:58",
        "first_observation_date": "2012-10-15",
        "last_observation_date": "2012-10-17",
        "data_arc_in_days": 2,
        "observations_used": 19,
        "orbit_uncertainty": "8",
        "minimum_orbit_intersection": ".0004852",
        "jupiter_tisserand_invariant": "3.722",
        "epoch_osculation": "2456216.5",
        "eccentricity": ".5747972212262845",
        "semi_major_axis": "1.904718766137916",
        "inclination": "1.155255678570112",
        "ascending_node_longitude": "28.1203287396621",
        "orbital_period": "960.1624506522422",
        "perihelion_distance": ".8098917121442845",
        "perihelion_argument": "59.32337282547492",
        "aphelion_distance": "2.999545820131547",
        "perihelion_time": "2456261.441998531955",
        "mean_anomaly": "343.1496019652578",
        "mean_motion": ".3749365534503568",
        "equinox": "J2000",
        "orbit_class": {
            "orbit_class_type": "APO",
            "orbit_class_description": "Near-Earth asteroid orbits which cross the Earth’s orbit similar to that of 1862 Apollo",
            "orbit_class_range": "a (semi-major axis) > 1.0 AU; q (perihelion) < 1.017 AU"
        }
    },
    "is_sentry_object": false
}